[{"OBJECT_NAME":"SHIYAN-27 E","OBJECT_ID":"2025-078E","EPOCH":"2026-03-09T23:22:34.446720","MEAN_MOTION":13.57242291,"ECCENTRICITY":7.842e-5,"INCLINATION":99.6934,"RA_OF_ASC_NODE":77.609,"ARG_OF_PERICENTER":97.9766,"MEAN_ANOMALY":262.1462,"EPHEMERIS_TYPE":0,"CLASSIFICATION_TYPE":"U","NORAD_CAT_ID":63603,"ELEMENT_SET_NO":999,"REV_AT_EPOCH":4407,"BSTAR":0.000129575,"MEAN_MOTION_DOT":4.8e-7,"MEAN_MOTION_DDOT":0},{"OBJECT_NAME":"KIKU-1 (ETS-I)","OBJECT_ID":"1975-082A","EPOCH":"2026-03-09T00:38:32.375040","MEAN_MOTION":13.59600061,"ECCENTRICITY":0.00854788,"INCLINATION":46.9882,"RA_OF_ASC_NODE":284.3859,"ARG_OF_PERICENTER":45.1495,"MEAN_ANOMALY":105.1792,"EPHEMERIS_TYPE":0,"CLASSIFICATION_TYPE":"U","NORAD_CAT_ID":8197,"ELEMENT_SET_NO":999,"REV_AT_EPOCH":50878,"BSTAR":3.9201804e-5,"MEAN_MOTION_DOT":-9.7e-7,"MEAN_MOTION_DDOT":0}]
